CCSDS_OMM_VERS = 2.0
CREATION_DATE  = 
ORIGINATOR     = 

OBJECT_NAME    = STARLINK-36345
OBJECT_ID      = 2026-054M
CENTER_NAME    = EARTH
REF_FRAME      = TEME
TIME_SYSTEM    = UTC
MEAN_ELEMENT_THEORY = SGP/SGP4

EPOCH          = 2026-03-28T04:00:01.999584
MEAN_MOTION    = 15.79096200
ECCENTRICITY   = .0001065
INCLINATION    = 53.1592
RA_OF_ASC_NODE = 219.9804
ARG_OF_PERICENTER = 80.0458
MEAN_ANOMALY   = 48.0424

EPHEMERIS_TYPE = 0
CLASSIFICATION_TYPE = U
NORAD_CAT_ID   = 68243
ELEMENT_SET_NO = 999
REV_AT_EPOCH   = 292
BSTAR          = -.1204E-1
MEAN_MOTION_DOT = -.1909307E-1
MEAN_MOTION_DDOT = 0

CCSDS_OMM_VERS = 2.0
CREATION_DATE  = 
ORIGINATOR     = 

OBJECT_NAME    = STARLINK-36310
OBJECT_ID      = 2026-054N
CENTER_NAME    = EARTH
REF_FRAME      = TEME
TIME_SYSTEM    = UTC
MEAN_ELEMENT_THEORY = SGP/SGP4

EPOCH          = 2026-03-28T04:00:01.999584
MEAN_MOTION    = 15.80876921
ECCENTRICITY   = .0001038
INCLINATION    = 53.1591
RA_OF_ASC_NODE = 219.9601
ARG_OF_PERICENTER = 101.0122
MEAN_ANOMALY   = 36.9831

EPHEMERIS_TYPE = 0
CLASSIFICATION_TYPE = U
NORAD_CAT_ID   = 68244
ELEMENT_SET_NO = 999
REV_AT_EPOCH   = 292
BSTAR          = .3136E-4
MEAN_MOTION_DOT = .5496E-4
MEAN_MOTION_DDOT = 0

CCSDS_OMM_VERS = 2.0
CREATION_DATE  = 
ORIGINATOR     = 

OBJECT_NAME    = STARLINK-36247
OBJECT_ID      = 2026-054P
CENTER_NAME    = EARTH
REF_FRAME      = TEME
TIME_SYSTEM    = UTC
MEAN_ELEMENT_THEORY = SGP/SGP4

EPOCH          = 2026-03-28T04:00:01.999584
MEAN_MOTION    = 15.80886073
ECCENTRICITY   = .0001119
INCLINATION    = 53.1589
RA_OF_ASC_NODE = 219.9691
ARG_OF_PERICENTER = 115.1815
MEAN_ANOMALY   = 18.5430

EPHEMERIS_TYPE = 0
CLASSIFICATION_TYPE = U
NORAD_CAT_ID   = 68245
ELEMENT_SET_NO = 999
REV_AT_EPOCH   = 292
BSTAR          = -.23E-3
MEAN_MOTION_DOT = -.45881E-3
MEAN_MOTION_DDOT = 0

CCSDS_OMM_VERS = 2.0
CREATION_DATE  = 
ORIGINATOR     = 

OBJECT_NAME    = STARLINK-37043
OBJECT_ID      = 2026-054Q
CENTER_NAME    = EARTH
REF_FRAME      = TEME
TIME_SYSTEM    = UTC
MEAN_ELEMENT_THEORY = SGP/SGP4

EPOCH          = 2026-03-28T04:00:01.999584
MEAN_MOTION    = 15.80866563
ECCENTRICITY   = .0000994
INCLINATION    = 53.1591
RA_OF_ASC_NODE = 219.9515
ARG_OF_PERICENTER = 73.1677
MEAN_ANOMALY   = 69.1034

EPHEMERIS_TYPE = 0
CLASSIFICATION_TYPE = U
NORAD_CAT_ID   = 68246
ELEMENT_SET_NO = 999
REV_AT_EPOCH   = 288
BSTAR          = .13074E-3
MEAN_MOTION_DOT = .25172E-3
MEAN_MOTION_DDOT = 0

CCSDS_OMM_VERS = 2.0
CREATION_DATE  = 
ORIGINATOR     = 

OBJECT_NAME    = STARLINK-37044
OBJECT_ID      = 2026-054R
CENTER_NAME    = EARTH
REF_FRAME      = TEME
TIME_SYSTEM    = UTC
MEAN_ELEMENT_THEORY = SGP/SGP4

EPOCH          = 2026-03-28T04:00:01.999584
MEAN_MOTION    = 15.80877408
ECCENTRICITY   = .0000997
INCLINATION    = 53.1590
RA_OF_ASC_NODE = 219.9424
ARG_OF_PERICENTER = 81.4793
MEAN_ANOMALY   = 65.0597

EPHEMERIS_TYPE = 0
CLASSIFICATION_TYPE = U
NORAD_CAT_ID   = 68247
ELEMENT_SET_NO = 999
REV_AT_EPOCH   = 288
BSTAR          = .13466E-4
MEAN_MOTION_DOT = .196E-4
MEAN_MOTION_DDOT = 0

CCSDS_OMM_VERS = 2.0
CREATION_DATE  = 
ORIGINATOR     = 

OBJECT_NAME    = STARLINK-36997
OBJECT_ID      = 2026-054S
CENTER_NAME    = EARTH
REF_FRAME      = TEME
TIME_SYSTEM    = UTC
MEAN_ELEMENT_THEORY = SGP/SGP4

EPOCH          = 2026-03-28T04:00:01.999584
MEAN_MOTION    = 15.79985034
ECCENTRICITY   = .0001309
INCLINATION    = 53.1591
RA_OF_ASC_NODE = 219.9342
ARG_OF_PERICENTER = 94.6728
MEAN_ANOMALY   = 55.8202

EPHEMERIS_TYPE = 0
CLASSIFICATION_TYPE = U
NORAD_CAT_ID   = 68248
ELEMENT_SET_NO = 999
REV_AT_EPOCH   = 288
BSTAR          = -.1144E-1
MEAN_MOTION_DOT = -.1892784E-1
MEAN_MOTION_DDOT = 0

CCSDS_OMM_VERS = 2.0
CREATION_DATE  = 
ORIGINATOR     = 

OBJECT_NAME    = STARLINK-37141
OBJECT_ID      = 2026-054T
CENTER_NAME    = EARTH
REF_FRAME      = TEME
TIME_SYSTEM    = UTC
MEAN_ELEMENT_THEORY = SGP/SGP4

EPOCH          = 2026-03-28T04:00:01.999584
MEAN_MOTION    = 15.80884191
ECCENTRICITY   = .0000795
INCLINATION    = 53.1592
RA_OF_ASC_NODE = 219.9250
ARG_OF_PERICENTER = 65.9807
MEAN_ANOMALY   = 89.1044

EPHEMERIS_TYPE = 0
CLASSIFICATION_TYPE = U
NORAD_CAT_ID   = 68249
ELEMENT_SET_NO = 999
REV_AT_EPOCH   = 296
BSTAR          = -.24513E-3
MEAN_MOTION_DOT = -.48829E-3
MEAN_MOTION_DDOT = 0

CCSDS_OMM_VERS = 2.0
CREATION_DATE  = 
ORIGINATOR     = 

OBJECT_NAME    = STARLINK-37087
OBJECT_ID      = 2026-054U
CENTER_NAME    = EARTH
REF_FRAME      = TEME
TIME_SYSTEM    = UTC
MEAN_ELEMENT_THEORY = SGP/SGP4

EPOCH          = 2026-03-28T04:00:01.999584
MEAN_MOTION    = 15.80882440
ECCENTRICITY   = .0001032
INCLINATION    = 53.1589
RA_OF_ASC_NODE = 219.9161
ARG_OF_PERICENTER = 105.9411
MEAN_ANOMALY   = 53.4134

EPHEMERIS_TYPE = 0
CLASSIFICATION_TYPE = U
NORAD_CAT_ID   = 68250
ELEMENT_SET_NO = 999
REV_AT_EPOCH   = 288
BSTAR          = -.12336E-3
MEAN_MOTION_DOT = -.24985E-3
MEAN_MOTION_DDOT = 0

CCSDS_OMM_VERS = 2.0
CREATION_DATE  = 
ORIGINATOR     = 

OBJECT_NAME    = STARLINK-36274
OBJECT_ID      = 2026-054V
CENTER_NAME    = EARTH
REF_FRAME      = TEME
TIME_SYSTEM    = UTC
MEAN_ELEMENT_THEORY = SGP/SGP4

EPOCH          = 2026-03-28T04:00:01.999584
MEAN_MOTION    = 15.81047390
ECCENTRICITY   = .0001056
INCLINATION    = 53.1590
RA_OF_ASC_NODE = 219.9072
ARG_OF_PERICENTER = 96.9160
MEAN_ANOMALY   = 66.6793

EPHEMERIS_TYPE = 0
CLASSIFICATION_TYPE = U
NORAD_CAT_ID   = 68251
ELEMENT_SET_NO = 999
REV_AT_EPOCH   = 292
BSTAR          = -.25031E-2
MEAN_MOTION_DOT = -.472479E-2
MEAN_MOTION_DDOT = 0

CCSDS_OMM_VERS = 2.0
CREATION_DATE  = 
ORIGINATOR     = 

OBJECT_NAME    = STARLINK-37085
OBJECT_ID      = 2026-054W
CENTER_NAME    = EARTH
REF_FRAME      = TEME
TIME_SYSTEM    = UTC
MEAN_ELEMENT_THEORY = SGP/SGP4

EPOCH          = 2026-03-28T04:00:01.999584
MEAN_MOTION    = 15.80894769
ECCENTRICITY   = .0001325
INCLINATION    = 53.1590
RA_OF_ASC_NODE = 219.8981
ARG_OF_PERICENTER = 93.6337
MEAN_ANOMALY   = 74.2626

EPHEMERIS_TYPE = 0
CLASSIFICATION_TYPE = U
NORAD_CAT_ID   = 68252
ELEMENT_SET_NO = 999
REV_AT_EPOCH   = 288
BSTAR          = -.20879E-3
MEAN_MOTION_DOT = -.41752E-3
MEAN_MOTION_DDOT = 0

CCSDS_OMM_VERS = 2.0
CREATION_DATE  = 
ORIGINATOR     = 

OBJECT_NAME    = STARLINK-37086
OBJECT_ID      = 2026-054X
CENTER_NAME    = EARTH
REF_FRAME      = TEME
TIME_SYSTEM    = UTC
MEAN_ELEMENT_THEORY = SGP/SGP4

EPOCH          = 2026-03-28T04:00:01.999584
MEAN_MOTION    = 15.81042336
ECCENTRICITY   = .0001039
INCLINATION    = 53.1589
RA_OF_ASC_NODE = 219.8900
ARG_OF_PERICENTER = 83.4557
MEAN_ANOMALY   = 88.6966

EPHEMERIS_TYPE = 0
CLASSIFICATION_TYPE = U
NORAD_CAT_ID   = 68253
ELEMENT_SET_NO = 999
REV_AT_EPOCH   = 288
BSTAR          = -.16408E-2
MEAN_MOTION_DOT = -.315474E-2
MEAN_MOTION_DDOT = 0

CCSDS_OMM_VERS = 2.0
CREATION_DATE  = 
ORIGINATOR     = 

OBJECT_NAME    = STARLINK-37084
OBJECT_ID      = 2026-054Y
CENTER_NAME    = EARTH
REF_FRAME      = TEME
TIME_SYSTEM    = UTC
MEAN_ELEMENT_THEORY = SGP/SGP4

EPOCH          = 2026-03-28T04:00:01.999584
MEAN_MOTION    = 15.80900306
ECCENTRICITY   = .0001102
INCLINATION    = 53.1589
RA_OF_ASC_NODE = 219.8720
ARG_OF_PERICENTER = 87.3334
MEAN_ANOMALY   = 93.3783

EPHEMERIS_TYPE = 0
CLASSIFICATION_TYPE = U
NORAD_CAT_ID   = 68254
ELEMENT_SET_NO = 999
REV_AT_EPOCH   = 288
BSTAR          = -.27361E-3
MEAN_MOTION_DOT = -.54429E-3
MEAN_MOTION_DDOT = 0

CCSDS_OMM_VERS = 2.0
CREATION_DATE  = 
ORIGINATOR     = 

OBJECT_NAME    = STARLINK-37075
OBJECT_ID      = 2026-054Z
CENTER_NAME    = EARTH
REF_FRAME      = TEME
TIME_SYSTEM    = UTC
MEAN_ELEMENT_THEORY = SGP/SGP4

EPOCH          = 2026-03-28T04:00:01.999584
MEAN_MOTION    = 15.80886487
ECCENTRICITY   = .0001073
INCLINATION    = 53.1590
RA_OF_ASC_NODE = 219.8808
ARG_OF_PERICENTER = 94.6462
MEAN_ANOMALY   = 81.8006

EPHEMERIS_TYPE = 0
CLASSIFICATION_TYPE = U
NORAD_CAT_ID   = 68255
ELEMENT_SET_NO = 999
REV_AT_EPOCH   = 288
BSTAR          = -.27523E-3
MEAN_MOTION_DOT = -.54712E-3
MEAN_MOTION_DDOT = 0

CCSDS_OMM_VERS = 2.0
CREATION_DATE  = 
ORIGINATOR     = 

OBJECT_NAME    = STARLINK-36333
OBJECT_ID      = 2026-054AA
CENTER_NAME    = EARTH
REF_FRAME      = TEME
TIME_SYSTEM    = UTC
MEAN_ELEMENT_THEORY = SGP/SGP4

EPOCH          = 2026-03-28T04:00:01.999584
MEAN_MOTION    = 15.80891530
ECCENTRICITY   = .0000933
INCLINATION    = 53.1590
RA_OF_ASC_NODE = 219.8635
ARG_OF_PERICENTER = 66.6920
MEAN_ANOMALY   = 118.2949

EPHEMERIS_TYPE = 0
CLASSIFICATION_TYPE = U
NORAD_CAT_ID   = 68256
ELEMENT_SET_NO = 999
REV_AT_EPOCH   = 292
BSTAR          = -.29782E-3
MEAN_MOTION_DOT = -.59127E-3
MEAN_MOTION_DDOT = 0

CCSDS_OMM_VERS = 2.0
CREATION_DATE  = 
ORIGINATOR     = 

OBJECT_NAME    = STARLINK-36745
OBJECT_ID      = 2026-054AB
CENTER_NAME    = EARTH
REF_FRAME      = TEME
TIME_SYSTEM    = UTC
MEAN_ELEMENT_THEORY = SGP/SGP4

EPOCH          = 2026-03-28T04:00:01.999584
MEAN_MOTION    = 15.80854217
ECCENTRICITY   = .0000661
INCLINATION    = 53.1587
RA_OF_ASC_NODE = 219.8447
ARG_OF_PERICENTER = 93.8623
MEAN_ANOMALY   = 99.7425

EPHEMERIS_TYPE = 0
CLASSIFICATION_TYPE = U
NORAD_CAT_ID   = 68257
ELEMENT_SET_NO = 999
REV_AT_EPOCH   = 288
BSTAR          = -.16845E-3
MEAN_MOTION_DOT = -.33785E-3
MEAN_MOTION_DDOT = 0

